{
    "links": {
        "self": "http://www.neowsapp.com/rest/v1/neo/3698468?api_key=iIulBulltgU6a56xZRHN4H3l9WmuAYTsLGpBGhQ2"
    },
    "id": "3698468",
    "neo_reference_id": "3698468",
    "name": "(2014 WX200)",
    "designation": "2014 WX200",
    "nasa_jpl_url": "http://ssd.jpl.nasa.gov/sbdb.cgi?sstr=3698468",
    "absolute_magnitude_h": 21.8,
    "estimated_diameter": {
        "kilometers": {
            "estimated_diameter_min": 0.1160259082,
            "estimated_diameter_max": 0.2594418179
        },
        "meters": {
            "estimated_diameter_min": 116.0259082094,
            "estimated_diameter_max": 259.4418179074
        },
        "miles": {
            "estimated_diameter_min": 0.0720951346,
            "estimated_diameter_max": 0.1612096218
        },
        "feet": {
            "estimated_diameter_min": 380.6624406898,
            "estimated_diameter_max": 851.1870938635
        }
    },
    "is_potentially_hazardous_asteroid": false,
    "close_approach_data": [
        {
            "close_approach_date": "1954-01-11",
            "close_approach_date_full": "1954-Jan-11 11:50",
            "epoch_date_close_approach": -504015000000,
            "relative_velocity": {
                "kilometers_per_second": "7.0290817469",
                "kilometers_per_hour": "25304.6942886963",
                "miles_per_hour": "15723.3529595513"
            },
            "miss_distance": {
                "astronomical": "0.3551224637",
                "lunar": "138.1426383793",
                "kilometers": "53125564.158672319",
                "miles": "33010694.8419392422"
            },
            "orbiting_body": "Earth"
        },
        {
            "close_approach_date": "1969-12-31",
            "close_approach_date_full": "1969-Dec-31 00:05",
            "epoch_date_close_approach": -86100000,
            "relative_velocity": {
                "kilometers_per_second": "5.9070863102",
                "kilometers_per_hour": "21265.5107168968",
                "miles_per_hour": "13213.5613673962"
            },
            "miss_distance": {
                "astronomical": "0.2581291773",
                "lunar": "100.4122499697",
                "kilometers": "38615575.108932351",
                "miles": "23994605.7280384038"
            },
            "orbiting_body": "Earth"
        },
        {
            "close_approach_date": "1999-01-21",
            "close_approach_date_full": "1999-Jan-21 00:08",
            "epoch_date_close_approach": 916877280000,
            "relative_velocity": {
                "kilometers_per_second": "6.3828226119",
                "kilometers_per_hour": "22978.1614028418",
                "miles_per_hour": "14277.7359005602"
            },
            "miss_distance": {
                "astronomical": "0.4331483964",
                "lunar": "168.4947261996",
                "kilometers": "64798077.495355668",
                "miles": "40263658.3049694984"
            },
            "orbiting_body": "Earth"
        },
        {
            "close_approach_date": "2015-01-02",
            "close_approach_date_full": "2015-Jan-02 18:11",
            "epoch_date_close_approach": 1420222260000,
            "relative_velocity": {
                "kilometers_per_second": "5.8366889574",
                "kilometers_per_hour": "21012.0802467225",
                "miles_per_hour": "13056.0895288593"
            },
            "miss_distance": {
                "astronomical": "0.2274800425",
                "lunar": "88.4897365325",
                "kilometers": "34030529.825509475",
                "miles": "21145590.699501755"
            },
            "orbiting_body": "Earth"
        },
        {
            "close_approach_date": "2060-01-04",
            "close_approach_date_full": "2060-Jan-04 13:19",
            "epoch_date_close_approach": 2840447940000,
            "relative_velocity": {
                "kilometers_per_second": "5.8626981374",
                "kilometers_per_hour": "21105.7132946649",
                "miles_per_hour": "13114.2694635656"
            },
            "miss_distance": {
                "astronomical": "0.2169937585",
                "lunar": "84.4105720565",
                "kilometers": "32461804.074894395",
                "miles": "20170829.718336851"
            },
            "orbiting_body": "Earth"
        }
    ],
    "orbital_data": {
        "orbit_id": "18",
        "orbit_determination_date": "2017-04-06 08:37:18",
        "first_observation_date": "2014-11-20",
        "last_observation_date": "2015-02-14",
        "data_arc_in_days": 86,
        "observations_used": 61,
        "orbit_uncertainty": "5",
        "minimum_orbit_intersection": ".217117",
        "jupiter_tisserand_invariant": "3.528",
        "epoch_osculation": "2459000.5",
        "eccentricity": ".4499800552801598",
        "semi_major_axis": "2.177382568330074",
        "inclination": "9.796781092189354",
        "ascending_node_longitude": "94.66219292278548",
        "orbital_period": "1173.547140216986",
        "perihelion_distance": "1.197603839866851",
        "perihelion_argument": "12.51772868180245",
        "aphelion_distance": "3.157161296793297",
        "perihelion_time": "2459383.511479915165",
        "mean_anomaly": "242.5065239867869",
        "mean_motion": ".3067622830502036",
        "equinox": "J2000",
        "orbit_class": {
            "orbit_class_type": "AMO",
            "orbit_class_description": "Near-Earth asteroid orbits similar to that of 1221 Amor",
            "orbit_class_range": "1.017 AU < q (perihelion) < 1.3 AU"
        }
    },
    "is_sentry_object": false
}